{
  "type": "FeatureCollection",
  "features": [
    {
      "type": "Feature",
      "properties": {
        "norad_id": 40695,
        "name": "FENGYUN 1C DEB",
        "group": "fengyun-1c-debris",
        "lat": 31.80641664579512,
        "lon": -80.75859590939027,
        "alt_km": 880.2498268541422,
        "timestamp": "2025-12-02T08:59:33.004542+00:00",
        "meta_object_name": "FENGYUN 1C DEB",
        "meta_object_id": "1999-025EXB",
        "meta_epoch": "2025-11-30T01:42:31.870080",
        "meta_mean_motion": 14.50916136,
        "meta_eccentricity": 0.02815501,
        "meta_inclination": 99.4248,
        "meta_ra_of_asc_node": 90.7471,
        "meta_arg_of_pericenter": 10.5794,
        "meta_mean_anomaly": 350.1155,
        "meta_ephemeris_type": 0,
        "meta_classification_type": "U",
        "meta_norad_cat_id": 40695,
        "meta_element_set_no": 999,
        "meta_rev_at_epoch": 31682,
        "meta_bstar": 0.00020572034,
        "meta_mean_motion_dot": 1.283e-05,
        "meta_mean_motion_ddot": 0,
        "tle_line1": "1 40695U 99025EXB 25334.07120220  .00001283  00000+0  20572-3 0  9992",
        "tle_line2": "2 40695  99.4248  90.7471 0281550  10.5794 350.1155 14.50916136316823"
      },
      "geometry": {
        "type": "Point",
        "coordinates": [
          -80.75859590939027,
          31.80641664579512
        ]
      }
    },
    {
      "type": "Feature",
      "properties": {
        "norad_id": 40696,
        "name": "FENGYUN 1C DEB",
        "group": "fengyun-1c-debris",
        "lat": -66.04454601950442,
        "lon": 122.61847576699041,
        "alt_km": 955.972650916794,
        "timestamp": "2025-12-02T08:59:33.004552+00:00",
        "meta_object_name": "FENGYUN 1C DEB",
        "meta_object_id": "1999-025EXC",
        "meta_epoch": "2025-11-26T05:40:29.681760",
        "meta_mean_motion": 13.96727195,
        "meta_eccentricity": 0.00806572,
        "meta_inclination": 98.9548,
        "meta_ra_of_asc_node": 317.4298,
        "meta_arg_of_pericenter": 42.7994,
        "meta_mean_anomaly": 317.9411,
        "meta_ephemeris_type": 0,
        "meta_classification_type": "U",
        "meta_norad_cat_id": 40696,
        "meta_element_set_no": 999,
        "meta_rev_at_epoch": 55449,
        "meta_bstar": 0.0001965233,
        "meta_mean_motion_dot": 2.38e-06,
        "meta_mean_motion_ddot": 0,
        "tle_line1": "1 40696U 99025EXC 25330.23645465  .00000238  00000+0  19652-3 0  9996",
        "tle_line2": "2 40696  98.9548 317.4298 0080657  42.7994 317.9411 13.96727195554498"
      },
      "geometry": {
        "type": "Point",
        "coordinates": [
          122.61847576699041,
          -66.04454601950442
        ]
      }
    },
    {
      "type": "Feature",
      "properties": {
        "norad_id": 41003,
        "name": "FENGYUN 1C DEB",
        "group": "fengyun-1c-debris",
        "lat": -28.864512407775134,
        "lon": 69.43189125899241,
        "alt_km": 683.4971332642335,
        "timestamp": "2025-12-02T08:59:33.004569+00:00",
        "meta_object_name": "FENGYUN 1C DEB",
        "meta_object_id": "1999-025EXH",
        "meta_epoch": "2025-12-01T12:27:32.870016",
        "meta_mean_motion": 14.71693137,
        "meta_eccentricity": 0.00741455,
        "meta_inclination": 98.9656,
        "meta_ra_of_asc_node": 253.4824,
        "meta_arg_of_pericenter": 327.3327,
        "meta_mean_anomaly": 32.3302,
        "meta_ephemeris_type": 0,
        "meta_classification_type": "U",
        "meta_norad_cat_id": 41003,
        "meta_element_set_no": 999,
        "meta_rev_at_epoch": 52255,
        "meta_bstar": 0.0050772648,
        "meta_mean_motion_dot": 0.00033124,
        "meta_mean_motion_ddot": 0,
        "tle_line1": "1 41003U 99025EXH 25335.51913044  .00033124  00000+0  50773-2 0  9994",
        "tle_line2": "2 41003  98.9656 253.4824 0074145 327.3327  32.3302 14.71693137522553"
      },
      "geometry": {
        "type": "Point",
        "coordinates": [
          69.43189125899241,
          -28.864512407775134
        ]
      }
    },
    {
      "type": "Feature",
      "properties": {
        "norad_id": 41006,
        "name": "FENGYUN 1C DEB",
        "group": "fengyun-1c-debris",
        "lat": 77.18606158764163,
        "lon": 129.20129150974708,
        "alt_km": 854.6430787075033,
        "timestamp": "2025-12-02T08:59:33.004580+00:00",
        "meta_object_name": "FENGYUN 1C DEB",
        "meta_object_id": "1999-025EXL",
        "meta_epoch": "2025-11-29T11:15:19.453824",
        "meta_mean_motion": 13.85224065,
        "meta_eccentricity": 0.01884128,
        "meta_inclination": 102.3665,
        "meta_ra_of_asc_node": 200.0792,
        "meta_arg_of_pericenter": 39.7901,
        "meta_mean_anomaly": 321.6889,
        "meta_ephemeris_type": 0,
        "meta_classification_type": "U",
        "meta_norad_cat_id": 41006,
        "meta_element_set_no": 999,
        "meta_rev_at_epoch": 57305,
        "meta_bstar": 0.0026164017,
        "meta_mean_motion_dot": 3.344e-05,
        "meta_mean_motion_ddot": 0,
        "tle_line1": "1 41006U 99025EXL 25333.46897516  .00003344  00000+0  26164-2 0  9992",
        "tle_line2": "2 41006 102.3665 200.0792 0188412  39.7901 321.6889 13.85224065573052"
      },
      "geometry": {
        "type": "Point",
        "coordinates": [
          129.20129150974708,
          77.18606158764163
        ]
      }
    },
    {
      "type": "Feature",
      "properties": {
        "norad_id": 41011,
        "name": "FENGYUN 1C DEB",
        "group": "fengyun-1c-debris",
        "lat": 80.67494161373709,
        "lon": -59.112765814842106,
        "alt_km": 624.4283234243385,
        "timestamp": "2025-12-02T08:59:33.004590+00:00",
        "meta_object_name": "FENGYUN 1C DEB",
        "meta_object_id": "1999-025EXR",
        "meta_epoch": "2025-12-01T09:18:20.431008",
        "meta_mean_motion": 14.42787378,
        "meta_eccentricity": 0.0311042,
        "meta_inclination": 99.1715,
        "meta_ra_of_asc_node": 19.5248,
        "meta_arg_of_pericenter": 31.7009,
        "meta_mean_anomaly": 330.2499,
        "meta_ephemeris_type": 0,
        "meta_classification_type": "U",
        "meta_norad_cat_id": 41011,
        "meta_element_set_no": 999,
        "meta_rev_at_epoch": 56993,
        "meta_bstar": 0.00061848862,
        "meta_mean_motion_dot": 3.647e-05,
        "meta_mean_motion_ddot": 0,
        "tle_line1": "1 41011U 99025EXR 25335.38773647  .00003647  00000+0  61849-3 0  9995",
        "tle_line2": "2 41011  99.1715  19.5248 0311042  31.7009 330.2499 14.42787378569934"
      },
      "geometry": {
        "type": "Point",
        "coordinates": [
          -59.112765814842106,
          80.67494161373709
        ]
      }
    },
    {
      "type": "Feature",
      "properties": {
        "norad_id": 41018,
        "name": "FENGYUN 1C DEB",
        "group": "fengyun-1c-debris",
        "lat": -6.031356589966728,
        "lon": 99.66173462167625,
        "alt_km": 894.0527482029684,
        "timestamp": "2025-12-02T08:59:33.004600+00:00",
        "meta_object_name": "FENGYUN 1C DEB",
        "meta_object_id": "1999-025EXY",
        "meta_epoch": "2025-11-14T13:55:42.109536",
        "meta_mean_motion": 13.52269451,
        "meta_eccentricity": 0.03030631,
        "meta_inclination": 99.9325,
        "meta_ra_of_asc_node": 262.8906,
        "meta_arg_of_pericenter": 189.0805,
        "meta_mean_anomaly": 170.4772,
        "meta_ephemeris_type": 0,
        "meta_classification_type": "U",
        "meta_norad_cat_id": 41018,
        "meta_element_set_no": 999,
        "meta_rev_at_epoch": 87794,
        "meta_bstar": 0.0023936359,
        "meta_mean_motion_dot": 2.062e-05,
        "meta_mean_motion_ddot": 0,
        "tle_line1": "1 41018U 99025EXY 25318.58034849  .00002062  00000+0  23936-2 0  9993",
        "tle_line2": "2 41018  99.9325 262.8906 0303063 189.0805 170.4772 13.52269451877943"
      },
      "geometry": {
        "type": "Point",
        "coordinates": [
          99.66173462167625,
          -6.031356589966728
        ]
      }
    },
    {
      "type": "Feature",
      "properties": {
        "norad_id": 41822,
        "name": "FENGYUN 1C DEB",
        "group": "fengyun-1c-debris",
        "lat": 45.95541776590601,
        "lon": 33.49629734440969,
        "alt_km": 841.6053170326213,
        "timestamp": "2025-12-02T08:59:33.004612+00:00",
        "meta_object_name": "FENGYUN 1C DEB",
        "meta_object_id": "1999-025EXZ",
        "meta_epoch": "2025-12-02T03:42:57.573792",
        "meta_mean_motion": 14.24668658,
        "meta_eccentricity": 0.0054721,
        "meta_inclination": 98.7333,
        "meta_ra_of_asc_node": 42.4224,
        "meta_arg_of_pericenter": 250.8671,
        "meta_mean_anomaly": 108.6578,
        "meta_ephemeris_type": 0,
        "meta_classification_type": "U",
        "meta_norad_cat_id": 41822,
        "meta_element_set_no": 999,
        "meta_rev_at_epoch": 47222,
        "meta_bstar": 0.0018237,
        "meta_mean_motion_dot": 4.265e-05,
        "meta_mean_motion_ddot": 0,
        "tle_line1": "1 41822U 99025EXZ 25336.15483303  .00004265  00000+0  18237-2 0  9997",
        "tle_line2": "2 41822  98.7333  42.4224 0054721 250.8671 108.6578 14.24668658472220"
      },
      "geometry": {
        "type": "Point",
        "coordinates": [
          33.49629734440969,
          45.95541776590601
        ]
      }
    }
  ]
}